NORAD_CAT_ID,OBJECT_NAME,OBJECT_TYPE,EPOCH,MEAN_MOTION,ECCENTRICITY,INCLINATION,RA_OF_ASC_NODE,ARG_OF_PERICENTER,MEAN_ANOMALY,BSTAR,MEAN_MOTION_DOT,MEAN_MOTION_DDOT,TLE_LINE0,TLE_LINE1,TLE_LINE2,SEMIMAJOR_AXIS,PERIOD,APOGEE,PERIGEE,DECAYED
52843.0,STARLINK-4188,PAYLOAD,2023-09-14 02:22:49,15.0885983,0.0001228,53.2173,148.4528,91.1312,268.9821,0.00014745,2.061e-05,0.0,0 STARLINK-4188,1 52843U 22062P   23257.09918980  .00002061  00000-0  14745-3 0  9990,2 52843  53.2173 148.4528 0001228  91.1312 268.9821 15.08859830 69263,6917.82,95.436,540.534,538.835,0.0
52843.0,STARLINK-4188,PAYLOAD,2023-09-14 21:27:29,15.08836961,0.00015,53.2178,144.886,91.4139,268.7025,-9.1007e-05,-1.736e-05,0.0,0 STARLINK-4188,1 52843U 22062P   23257.89408969 -.00001736  00000-0 -91007-4 0  9996,2 52843  53.2178 144.8860 0001500  91.4139 268.7025 15.08836961 68892,6917.89,95.438,540.792,538.717,0.0
52843.0,STARLINK-4188,PAYLOAD,2023-09-14 23:02:52,15.08836406,0.000147,53.2173,144.5884,85.0621,275.0539,-6.5426e-05,-1.329e-05,0.0,0 STARLINK-4188,1 52843U 22062P   23257.96032988 -.00001329  00000-0 -65426-4 0  9992,2 52843  53.2173 144.5884 0001470  85.0621 275.0539 15.08836406 69392,6917.891,95.438,540.773,538.739,0.0
52843.0,STARLINK-4188,PAYLOAD,2023-09-15 03:49:01,15.0884208,0.0001453,53.2169,143.6956,84.7583,275.3575,-1.2958e-05,-4.94e-06,0.0,0 STARLINK-4188,1 52843U 22062P   23258.15904525 -.00000494  00000-0 -12958-4 0  9993,2 52843  53.2169 143.6956 0001453  84.7583 275.3575 15.08842080 69423,6917.874,95.437,540.744,538.734,0.0
52843.0,STARLINK-4188,PAYLOAD,2023-09-15 22:53:38,15.08849836,0.0001382,53.2171,140.1279,83.4827,276.6322,6.1069e-05,6.84e-06,0.0,0 STARLINK-4188,1 52843U 22062P   23258.95391771  .00000684  00000-0  61069-4 0  9990,2 52843  53.2171 140.1279 0001382  83.4827 276.6322 15.08849836 69547,6917.85,95.437,540.671,538.759,0.0
52843.0,STARLINK-4188,PAYLOAD,2023-09-16 02:04:24,15.08853333,0.000136,53.217,139.5323,83.5284,276.5863,8.1149e-05,1.004e-05,0.0,0 STARLINK-4188,1 52843U 22062P   23259.08639487  .00001004  00000-0  81149-4 0  9992,2 52843  53.2170 139.5323 0001360  83.5284 276.5863 15.08853333 69076,6917.84,95.437,540.645,538.764,0.0
52843.0,STARLINK-4188,PAYLOAD,2023-09-16 22:44:26,15.08834992,0.0001372,53.2175,135.6685,80.0544,280.0603,0.0001309,1.796e-05,0.0,0 STARLINK-4188,1 52843U 22062P   23259.94752965  .00001796  00000-0  13090-3 0  9991,2 52843  53.2175 135.6685 0001372  80.0544 280.0603 15.08834992 69693,6917.896,95.438,540.71,538.812,0.0
52843.0,STARLINK-4188,PAYLOAD,2023-09-18 01:45:59,15.08853355,0.0001327,53.2168,130.6114,93.2876,266.8268,9.9465e-05,1.296e-05,0.0,0 STARLINK-4188,1 52843U 22062P   23261.07360044  .00001296  00000-0  99465-4 0  9997,2 52843  53.2168 130.6114 0001327  93.2876 266.8268 15.08853355 69863,6917.84,95.437,540.623,538.787,0.0
52843.0,STARLINK-4188,PAYLOAD,2023-09-18 22:26:00,15.08844625,0.0001321,53.216,126.748,96.4163,263.6979,0.00015405,2.165e-05,0.0,0 STARLINK-4188,1 52843U 22062P   23261.93472596  .00002165  00000-0  15405-3 0  9995,2 52843  53.2160 126.7480 0001321  96.4163 263.6979 15.08844625 69500,6917.866,95.437,540.645,538.817,0.0
52843.0,STARLINK-4188,PAYLOAD,2023-09-19 23:52:09,15.08857293,0.0001251,53.2146,121.9885,85.3012,274.8123,0.00044247,6.764e-05,0.0,0 STARLINK-4188,1 52843U 22062P   23262.99455865  .00006764  00000-0  44247-3 0  9997,2 52843  53.2146 121.9885 0001251  85.3012 274.8123 15.08857293 70155,6917.828,95.436,540.558,538.827,0.0
52843.0,STARLINK-4188,PAYLOAD,2023-09-20 18:56:49,15.08815049,0.0001235,53.2146,118.4202,74.8025,285.3104,-0.00037661,-6.272e-05,0.0,0 STARLINK-4188,1 52843U 22062P   23263.78945700 -.00006272  00000-0 -37661-3 0  9995,2 52843  53.2146 118.4202 0001235  74.8025 285.3104 15.08815049 70270,6917.957,95.439,540.676,538.967,0.0
52843.0,STARLINK-4188,PAYLOAD,2023-09-20 22:07:35,15.08819592,0.0001393,53.2151,117.8243,87.0566,273.0585,-0.00023178,-3.973e-05,0.0,0 STARLINK-4188,1 52843U 22062P   23263.92193931 -.00003973  00000-0 -23178-3 0  9995,2 52843  53.2151 117.8243 0001393  87.0566 273.0585 15.08819592 69806,6917.943,95.439,540.771,538.844,0.0
52843.0,STARLINK-4188,PAYLOAD,2023-09-21 14:01:27,15.08822614,0.0001447,53.2156,114.8491,90.0789,270.0369,0.00011537,1.548e-05,0.0,0 STARLINK-4188,1 52843U 22062P   23264.58434853  .00001548  00000-0  11537-3 0  9999,2 52843  53.2156 114.8491 0001447  90.0789 270.0369 15.08822614 69901,6917.934,95.439,540.8,538.798,0.0
52843.0,STARLINK-4188,PAYLOAD,2023-09-21 18:47:36,15.08832583,0.0001415,53.2155,113.9594,90.9503,269.1651,0.00023131,3.395e-05,0.0,0 STARLINK-4188,1 52843U 22062P   23264.78306681  .00003395  00000-0  23131-3 0  9993,2 52843  53.2155 113.9594 0001415  90.9503 269.1651 15.08832583 70420,6917.903,95.438,540.747,538.789,0.0
52843.0,STARLINK-4188,PAYLOAD,2023-09-21 21:58:23,15.08835532,0.0001459,53.2153,113.3642,87.0371,273.0788,0.00073592,0.00011442,0.0,0 STARLINK-4188,1 52843U 22062P   23264.91555044  .00011442  00000-0  73592-3 0  9995,2 52843  53.2153 113.3642 0001459  87.0371 273.0788 15.08835532 69952,6917.894,95.438,540.768,538.75,0.0
52843.0,STARLINK-4188,PAYLOAD,2023-09-22 18:38:23,15.08867942,0.0001498,53.2158,109.4985,87.3205,272.7959,0.0010049,0.00015753,0.0,0 STARLINK-4188,1 52843U 22062P   23265.77666178  .00015753  00000-0  10049-2 0  9997,2 52843  53.2158 109.4985 0001498  87.3205 272.7959 15.08867942 70571,6917.795,95.436,540.696,538.624,0.0
52843.0,STARLINK-4188,PAYLOAD,2023-09-22 20:13:46,15.08872781,0.0001497,53.2159,109.201,88.368,271.7483,0.001136,0.00017854,0.0,0 STARLINK-4188,1 52843U 22062P   23265.84290014  .00017854  00000-0  11360-2 0  9998,2 52843  53.2159 109.2010 0001497  88.3680 271.7483 15.08872781 70091,6917.78,95.435,540.681,538.61,0.0
52843.0,STARLINK-4188,PAYLOAD,2023-09-22 23:24:32,15.08879656,0.0001487,53.2159,108.606,88.002,272.1142,0.00124,0.00019523,0.0,0 STARLINK-4188,1 52843U 22062P   23265.97537668  .00019523  00000-0  12400-2 0  9992,2 52843  53.2159 108.6060 0001487  88.0020 272.1142 15.08879656 70111,6917.759,95.435,540.653,538.596,0.0
52843.0,STARLINK-4188,PAYLOAD,2023-09-23 18:29:09,15.08861341,0.0001238,53.2168,105.0378,99.2718,260.8415,0.00051728,7.959e-05,0.0,0 STARLINK-4188,1 52843U 22062P   23266.77025264  .00007959  00000-0  51728-3 0  9992,2 52843  53.2168 105.0378 0001238  99.2718 260.8415 15.08861341 70722,6917.815,95.436,540.537,538.824,0.0
52843.0,STARLINK-4188,PAYLOAD,2023-09-23 20:04:32,15.08857789,0.0001242,53.2169,104.7405,88.2439,271.8695,0.00041653,6.351e-05,0.0,0 STARLINK-4188,1 52843U 22062P   23266.83649302  .00006351  00000-0  41653-3 0  9995,2 52843  53.2169 104.7405 0001242  88.2439 271.8695 15.08857789 70243,6917.826,95.436,540.55,538.832,0.0
52843.0,STARLINK-4188,PAYLOAD,2023-09-24 18:19:57,15.08839215,0.0001266,53.217,100.5757,84.7145,275.3992,0.00058338,9.009e-05,0.0,0 STARLINK-4188,1 52843U 22062P   23267.76385585  .00009009  00000-0  58338-3 0  9999,2 52843  53.2170 100.5757 0001266  84.7145 275.3992 15.08839215 70872,6917.883,95.438,540.624,538.872,0.0
52843.0,STARLINK-4188,PAYLOAD,2023-09-24 21:30:43,15.0884405,0.0001307,53.217,99.9816,90.7011,269.4131,-1.9797e-05,-6.03e-06,0.0,0 STARLINK-4188,1 52843U 22062P   23267.89633390 -.00000603  00000-0 -19797-4 0  9993,2 52843  53.2170  99.9816 0001307  90.7011 269.4131 15.08844050 70405,6917.868,95.437,540.637,538.829,0.0
52843.0,STARLINK-4188,PAYLOAD,2023-09-25 05:27:38,15.08847076,0.0001326,53.2171,98.4946,91.4958,268.6186,-3.1743e-06,-3.38e-06,0.0,0 STARLINK-4188,1 52843U 22062P   23268.22753277 -.00000338  00000-0 -31743-5 0  9999,2 52843  53.2171  98.4946 0001326  91.4958 268.6186 15.08847076 70450,6917.859,95.437,540.641,538.806,0.0
52843.0,STARLINK-4188,PAYLOAD,2023-09-25 19:46:06,15.0885349,0.0001166,53.2165,95.8196,88.6973,271.4152,0.00017564,2.51e-05,0.0,0 STARLINK-4188,1 52843U 22062P   23268.82368857  .00002510  00000-0  17564-3 0  9996,2 52843  53.2165  95.8196 0001166  88.6973 271.4152 15.08853490 71035,6917.839,95.437,540.511,538.898,0.0
52843.0,STARLINK-4188,PAYLOAD,2023-09-25 21:21:29,15.0885383,0.0001182,53.2166,95.5219,86.7217,273.391,0.00027975,4.169e-05,0.0,0 STARLINK-4188,1 52843U 22062P   23268.88992910  .00004169  00000-0  27975-3 0  9994,2 52843  53.2166  95.5219 0001182  86.7217 273.3910 15.08853830 70554,6917.838,95.437,540.521,538.885,0.0
52843.0,STARLINK-4188,PAYLOAD,2023-09-26 19:36:55,15.08818892,0.0001651,53.2173,91.356,74.245,285.8724,-0.00017906,-3.135e-05,0.0,0 STARLINK-4188,1 52843U 22062P   23269.81731317 -.00003135  00000-0 -17906-3 0  9997,2 52843  53.2173  91.3560 0001651  74.2450 285.8724 15.08818892 71187,6917.945,95.439,540.952,538.668,0.0
52843.0,STARLINK-4188,PAYLOAD,2023-09-26 21:12:19,15.08818358,0.0001655,53.2172,91.059,74.6716,285.4459,-0.00017151,-3.015e-05,0.0,0 STARLINK-4188,1 52843U 22062P   23269.88355438 -.00003015  00000-0 -17151-3 0  9999,2 52843  53.2172  91.0590 0001655  74.6716 285.4459 15.08818358 70704,6917.947,95.439,540.956,538.667,0.0
52843.0,STARLINK-4188,PAYLOAD,2023-09-27 19:27:43,15.08837023,0.0001285,53.2158,86.8975,83.678,276.4358,0.00028045,4.178e-05,0.0,0 STARLINK-4188,1 52843U 22062P   23270.81091653  .00004178  00000-0  28045-3 0  9993,2 52843  53.2158  86.8975 0001285  83.6780 276.4358 15.08837023 71335,6917.889,95.438,540.643,538.866,0.0
52843.0,STARLINK-4188,PAYLOAD,2023-09-27 21:03:06,15.08837308,0.0001367,53.2159,86.6009,81.8869,278.2278,0.00048817,7.489e-05,0.0,0 STARLINK-4188,1 52843U 22062P   23270.87715900  .00007489  00000-0  48817-3 0  9994,2 52843  53.2159  86.6009 0001367  81.8869 278.2278 15.08837308 70854,6917.889,95.438,540.699,538.808,0.0
52843.0,STARLINK-4188,PAYLOAD,2023-09-28 17:43:05,15.08903348,9.08e-05,53.2151,82.7351,81.4942,278.6153,0.0018481,0.00029298,0.0,0 STARLINK-4188,1 52843U 22062P   23271.73825843  .00029298  00000-0  18481-2 0  9993,2 52843  53.2151  82.7351 0000908  81.4942 278.6153 15.08903348 71474,6917.687,95.434,540.18,538.924,0.0
